{
  "type": "FeatureCollection",
  "features": [
    {
      "type": "Feature",
      "properties": {
        "norad_id": 32376,
        "name": "COSMO-SKYMED 2",
        "group": "resource",
        "lat": 36.645616211047276,
        "lon": 170.758431808571,
        "alt_km": 619.3169104694907,
        "timestamp": "2025-12-21T11:31:42.498459+00:00",
        "meta_object_name": "COSMO-SKYMED 2",
        "meta_object_id": "2007-059A",
        "meta_epoch": "2025-12-21T04:52:51.014208",
        "meta_mean_motion": 14.82151984,
        "meta_eccentricity": 0.0001343,
        "meta_inclination": 97.8804,
        "meta_ra_of_asc_node": 176.3997,
        "meta_arg_of_pericenter": 83.213,
        "meta_mean_anomaly": 276.9236,
        "meta_ephemeris_type": 0,
        "meta_classification_type": "U",
        "meta_norad_cat_id": 32376,
        "meta_element_set_no": 999,
        "meta_rev_at_epoch": 97563,
        "meta_bstar": 5.1511e-05,
        "meta_mean_motion_dot": 3.58e-06,
        "meta_mean_motion_ddot": 0,
        "tle_line1": "1 32376U 07059A   25355.20336822  .00000358  00000+0  51511-4 0  9990",
        "tle_line2": "2 32376  97.8804 176.3997 0001343  83.2130 276.9236 14.82151984975637"
      },
      "geometry": {
        "type": "Point",
        "coordinates": [
          170.758431808571,
          36.645616211047276
        ]
      }
    },
    {
      "type": "Feature",
      "properties": {
        "norad_id": 32382,
        "name": "RADARSAT-2",
        "group": "resource",
        "lat": 32.21269072173484,
        "lon": -174.59889256696673,
        "alt_km": 789.4864027508656,
        "timestamp": "2025-12-21T11:31:42.498470+00:00",
        "meta_object_name": "RADARSAT-2",
        "meta_object_id": "2007-061A",
        "meta_epoch": "2025-12-21T04:07:29.657856",
        "meta_mean_motion": 14.29983843,
        "meta_eccentricity": 0.0001136,
        "meta_inclination": 98.579,
        "meta_ra_of_asc_node": 359.6395,
        "meta_arg_of_pericenter": 85.3205,
        "meta_mean_anomaly": 274.8107,
        "meta_ephemeris_type": 0,
        "meta_classification_type": "U",
        "meta_norad_cat_id": 32382,
        "meta_element_set_no": 999,
        "meta_rev_at_epoch": 94051,
        "meta_bstar": 1.7118e-05,
        "meta_mean_motion_dot": 1e-08,
        "meta_mean_motion_ddot": 0,
        "tle_line1": "1 32382U 07061A   25355.17187104  .00000001  00000+0  17118-4 0  9993",
        "tle_line2": "2 32382  98.5790 359.6395 0001136  85.3205 274.8107 14.29983843940511"
      },
      "geometry": {
        "type": "Point",
        "coordinates": [
          -174.59889256696673,
          32.21269072173484
        ]
      }
    },
    {
      "type": "Feature",
      "properties": {
        "norad_id": 32783,
        "name": "CARTOSAT-2A",
        "group": "resource",
        "lat": 74.10636415127212,
        "lon": 16.285473996263704,
        "alt_km": 626.9110878607962,
        "timestamp": "2025-12-21T11:31:42.498482+00:00",
        "meta_object_name": "CARTOSAT-2A",
        "meta_object_id": "2008-021A",
        "meta_epoch": "2025-12-21T04:41:27.305088",
        "meta_mean_motion": 14.78951434,
        "meta_eccentricity": 0.0011174,
        "meta_inclination": 97.7922,
        "meta_ra_of_asc_node": 44.7551,
        "meta_arg_of_pericenter": 337.077,
        "meta_mean_anomaly": 22.9941,
        "meta_ephemeris_type": 0,
        "meta_classification_type": "U",
        "meta_norad_cat_id": 32783,
        "meta_element_set_no": 999,
        "meta_rev_at_epoch": 95249,
        "meta_bstar": 9.1793e-05,
        "meta_mean_motion_dot": 6.27e-06,
        "meta_mean_motion_ddot": 0,
        "tle_line1": "1 32783U 08021A   25355.19545492  .00000627  00000+0  91793-4 0  9990",
        "tle_line2": "2 32783  97.7922  44.7551 0011174 337.0770  22.9941 14.78951434952490"
      },
      "geometry": {
        "type": "Point",
        "coordinates": [
          16.285473996263704,
          74.10636415127212
        ]
      }
    },
    {
      "type": "Feature",
      "properties": {
        "norad_id": 33320,
        "name": "HUANJING 1A (HJ-1A)",
        "group": "resource",
        "lat": 78.74256034490568,
        "lon": -59.08558365993309,
        "alt_km": 607.65590715502,
        "timestamp": "2025-12-21T11:31:42.498493+00:00",
        "meta_object_name": "HUANJING 1A (HJ-1A)",
        "meta_object_id": "2008-041A",
        "meta_epoch": "2025-12-21T04:41:13.310880",
        "meta_mean_motion": 14.83419138,
        "meta_eccentricity": 0.0019525,
        "meta_inclination": 97.6537,
        "meta_ra_of_asc_node": 343.1408,
        "meta_arg_of_pericenter": 7.6994,
        "meta_mean_anomaly": 352.4516,
        "meta_ephemeris_type": 0,
        "meta_classification_type": "U",
        "meta_norad_cat_id": 33320,
        "meta_element_set_no": 999,
        "meta_rev_at_epoch": 93201,
        "meta_bstar": 0.0001827,
        "meta_mean_motion_dot": 1.453e-05,
        "meta_mean_motion_ddot": 0,
        "tle_line1": "1 33320U 08041A   25355.19529295  .00001453  00000+0  18270-3 0  9999",
        "tle_line2": "2 33320  97.6537 343.1408 0019525   7.6994 352.4516 14.83419138932013"
      },
      "geometry": {
        "type": "Point",
        "coordinates": [
          -59.08558365993309,
          78.74256034490568
        ]
      }
    },
    {
      "type": "Feature",
      "properties": {
        "norad_id": 33321,
        "name": "HUANJING 1B (HJ-1B)",
        "group": "resource",
        "lat": -73.95626039992783,
        "lon": 14.91124099232065,
        "alt_km": 642.48001308946,
        "timestamp": "2025-12-21T11:31:42.498504+00:00",
        "meta_object_name": "HUANJING 1B (HJ-1B)",
        "meta_object_id": "2008-041B",
        "meta_epoch": "2025-12-21T05:23:30.923808",
        "meta_mean_motion": 14.8284398,
        "meta_eccentricity": 0.0038013,
        "meta_inclination": 97.6396,
        "meta_ra_of_asc_node": 346.8437,
        "meta_arg_of_pericenter": 48.9835,
        "meta_mean_anomaly": 311.4656,
        "meta_ephemeris_type": 0,
        "meta_classification_type": "U",
        "meta_norad_cat_id": 33321,
        "meta_element_set_no": 999,
        "meta_rev_at_epoch": 93203,
        "meta_bstar": 0.00019046,
        "meta_mean_motion_dot": 1.509e-05,
        "meta_mean_motion_ddot": 0,
        "tle_line1": "1 33321U 08041B   25355.22466347  .00001509  00000+0  19046-3 0  9996",
        "tle_line2": "2 33321  97.6396 346.8437 0038013  48.9835 311.4656 14.82843980932031"
      },
      "geometry": {
        "type": "Point",
        "coordinates": [
          14.91124099232065,
          -73.95626039992783
        ]
      }
    },
    {
      "type": "Feature",
      "properties": {
        "norad_id": 33331,
        "name": "GEOEYE 1",
        "group": "resource",
        "lat": 61.296811459291895,
        "lon": 51.52830388508625,
        "alt_km": 674.0376036946018,
        "timestamp": "2025-12-21T11:31:42.498515+00:00",
        "meta_object_name": "GEOEYE 1",
        "meta_object_id": "2008-042A",
        "meta_epoch": "2025-12-21T04:41:11.289120",
        "meta_mean_motion": 14.647105,
        "meta_eccentricity": 0.0002841,
        "meta_inclination": 98.1242,
        "meta_ra_of_asc_node": 66.3692,
        "meta_arg_of_pericenter": 247.8958,
        "meta_mean_anomaly": 112.1943,
        "meta_ephemeris_type": 0,
        "meta_classification_type": "U",
        "meta_norad_cat_id": 33331,
        "meta_element_set_no": 999,
        "meta_rev_at_epoch": 92409,
        "meta_bstar": 8.352e-05,
        "meta_mean_motion_dot": 3.97e-06,
        "meta_mean_motion_ddot": 0,
        "tle_line1": "1 33331U 08042A   25355.19526955  .00000397  00000+0  83520-4 0  9999",
        "tle_line2": "2 33331  98.1242  66.3692 0002841 247.8958 112.1943 14.64710500924094"
      },
      "geometry": {
        "type": "Point",
        "coordinates": [
          51.52830388508625,
          61.296811459291895
        ]
      }
    },
    {
      "type": "Feature",
      "properties": {
        "norad_id": 33396,
        "name": "THEOS",
        "group": "resource",
        "lat": -42.62516761082562,
        "lon": 61.30530098262722,
        "alt_km": 832.2510130901092,
        "timestamp": "2025-12-21T11:31:42.498526+00:00",
        "meta_object_name": "THEOS",
        "meta_object_id": "2008-049A",
        "meta_epoch": "2025-12-21T04:58:03.857376",
        "meta_mean_motion": 14.20098575,
        "meta_eccentricity": 0.0001193,
        "meta_inclination": 98.5861,
        "meta_ra_of_asc_node": 53.0471,
        "meta_arg_of_pericenter": 96.2931,
        "meta_mean_anomaly": 263.8382,
        "meta_ephemeris_type": 0,
        "meta_classification_type": "U",
        "meta_norad_cat_id": 33396,
        "meta_element_set_no": 999,
        "meta_rev_at_epoch": 89270,
        "meta_bstar": 7.7785e-05,
        "meta_mean_motion_dot": 1.23e-06,
        "meta_mean_motion_ddot": 0,
        "tle_line1": "1 33396U 08049A   25355.20698909  .00000123  00000+0  77785-4 0  9991",
        "tle_line2": "2 33396  98.5861  53.0471 0001193  96.2931 263.8382 14.20098575892706"
      },
      "geometry": {
        "type": "Point",
        "coordinates": [
          61.30530098262722,
          -42.62516761082562
        ]
      }
    }
  ]
}